CCSDS_OMM_VERS = 2.0
CREATION_DATE  = 
ORIGINATOR     = 

OBJECT_NAME    = HULIANWANG DIGUI 13J
OBJECT_ID      = 2025-258J
CENTER_NAME    = EARTH
REF_FRAME      = TEME
TIME_SYSTEM    = UTC
MEAN_ELEMENT_THEORY = SGP/SGP4

EPOCH          = 2025-11-22T08:19:04.011744
MEAN_MOTION    = 14.26346428
ECCENTRICITY   = .00109393
INCLINATION    = 50.0028
RA_OF_ASC_NODE = 347.7517
ARG_OF_PERICENTER = 293.8228
MEAN_ANOMALY   = 66.1539

EPHEMERIS_TYPE = 0
CLASSIFICATION_TYPE = U
NORAD_CAT_ID   = 66420
ELEMENT_SET_NO = 999
REV_AT_EPOCH   = 174
BSTAR          = -.4779134E-5
MEAN_MOTION_DOT = -.172E-5
MEAN_MOTION_DDOT = 0

CCSDS_OMM_VERS = 2.0
CREATION_DATE  = 
ORIGINATOR     = 

OBJECT_NAME    = CZ-12 R/B
OBJECT_ID      = 2025-258K
CENTER_NAME    = EARTH
REF_FRAME      = TEME
TIME_SYSTEM    = UTC
MEAN_ELEMENT_THEORY = SGP/SGP4

EPOCH          = 2025-11-23T07:41:16.384992
MEAN_MOTION    = 14.42311624
ECCENTRICITY   = .00645933
INCLINATION    = 49.9956
RA_OF_ASC_NODE = 342.2142
ARG_OF_PERICENTER = 179.6267
MEAN_ANOMALY   = 180.4713

EPHEMERIS_TYPE = 0
CLASSIFICATION_TYPE = U
NORAD_CAT_ID   = 66421
ELEMENT_SET_NO = 999
REV_AT_EPOCH   = 191
BSTAR          = .22502622E-4
MEAN_MOTION_DOT = -.95E-6
MEAN_MOTION_DDOT = 0

CCSDS_OMM_VERS = 2.0
CREATION_DATE  = 
ORIGINATOR     = 

OBJECT_NAME    = STARLINK-35617
OBJECT_ID      = 2025-259A
CENTER_NAME    = EARTH
REF_FRAME      = TEME
TIME_SYSTEM    = UTC
MEAN_ELEMENT_THEORY = SGP/SGP4

EPOCH          = 2025-11-24T12:00:02.000160
MEAN_MOTION    = 15.75017125
ECCENTRICITY   = .0001658
INCLINATION    = 42.9993
RA_OF_ASC_NODE = 155.0589
ARG_OF_PERICENTER = 277.9910
MEAN_ANOMALY   = 218.3122

EPHEMERIS_TYPE = 0
CLASSIFICATION_TYPE = U
NORAD_CAT_ID   = 66422
ELEMENT_SET_NO = 999
REV_AT_EPOCH   = 334
BSTAR          = .38605E-3
MEAN_MOTION_DOT = .59183E-3
MEAN_MOTION_DDOT = 0

CCSDS_OMM_VERS = 2.0
CREATION_DATE  = 
ORIGINATOR     = 

OBJECT_NAME    = STARLINK-35618
OBJECT_ID      = 2025-259B
CENTER_NAME    = EARTH
REF_FRAME      = TEME
TIME_SYSTEM    = UTC
MEAN_ELEMENT_THEORY = SGP/SGP4

EPOCH          = 2025-11-24T12:00:02.000160
MEAN_MOTION    = 15.75017176
ECCENTRICITY   = .0001709
INCLINATION    = 42.9991
RA_OF_ASC_NODE = 155.0541
ARG_OF_PERICENTER = 272.8119
MEAN_ANOMALY   = 225.4095

EPHEMERIS_TYPE = 0
CLASSIFICATION_TYPE = U
NORAD_CAT_ID   = 66423
ELEMENT_SET_NO = 999
REV_AT_EPOCH   = 334
BSTAR          = .32405E-3
MEAN_MOTION_DOT = .49544E-3
MEAN_MOTION_DDOT = 0

CCSDS_OMM_VERS = 2.0
CREATION_DATE  = 
ORIGINATOR     = 

OBJECT_NAME    = STARLINK-35588
OBJECT_ID      = 2025-259C
CENTER_NAME    = EARTH
REF_FRAME      = TEME
TIME_SYSTEM    = UTC
MEAN_ELEMENT_THEORY = SGP/SGP4

EPOCH          = 2025-11-24T12:00:02.000160
MEAN_MOTION    = 15.75001692
ECCENTRICITY   = .0001605
INCLINATION    = 42.9992
RA_OF_ASC_NODE = 155.0499
ARG_OF_PERICENTER = 263.1879
MEAN_ANOMALY   = 236.9586

EPHEMERIS_TYPE = 0
CLASSIFICATION_TYPE = U
NORAD_CAT_ID   = 66424
ELEMENT_SET_NO = 999
REV_AT_EPOCH   = 334
BSTAR          = .57904E-3
MEAN_MOTION_DOT = .89269E-3
MEAN_MOTION_DDOT = 0

CCSDS_OMM_VERS = 2.0
CREATION_DATE  = 
ORIGINATOR     = 

OBJECT_NAME    = STARLINK-35555
OBJECT_ID      = 2025-259D
CENTER_NAME    = EARTH
REF_FRAME      = TEME
TIME_SYSTEM    = UTC
MEAN_ELEMENT_THEORY = SGP/SGP4

EPOCH          = 2025-11-24T12:00:02.000160
MEAN_MOTION    = 15.75185948
ECCENTRICITY   = .0001371
INCLINATION    = 42.9992
RA_OF_ASC_NODE = 155.0440
ARG_OF_PERICENTER = 262.2020
MEAN_ANOMALY   = 239.8343

EPHEMERIS_TYPE = 0
CLASSIFICATION_TYPE = U
NORAD_CAT_ID   = 66425
ELEMENT_SET_NO = 999
REV_AT_EPOCH   = 334
BSTAR          = -.15725E-2
MEAN_MOTION_DOT = -.236882E-2
MEAN_MOTION_DDOT = 0

CCSDS_OMM_VERS = 2.0
CREATION_DATE  = 
ORIGINATOR     = 

OBJECT_NAME    = STARLINK-35589
OBJECT_ID      = 2025-259E
CENTER_NAME    = EARTH
REF_FRAME      = TEME
TIME_SYSTEM    = UTC
MEAN_ELEMENT_THEORY = SGP/SGP4

EPOCH          = 2025-11-24T12:00:02.000160
MEAN_MOTION    = 15.74991866
ECCENTRICITY   = .0002271
INCLINATION    = 42.9991
RA_OF_ASC_NODE = 155.0404
ARG_OF_PERICENTER = 264.3184
MEAN_ANOMALY   = 239.6640

EPHEMERIS_TYPE = 0
CLASSIFICATION_TYPE = U
NORAD_CAT_ID   = 66426
ELEMENT_SET_NO = 999
REV_AT_EPOCH   = 334
BSTAR          = .89917E-3
MEAN_MOTION_DOT = .13967E-2
MEAN_MOTION_DDOT = 0

CCSDS_OMM_VERS = 2.0
CREATION_DATE  = 
ORIGINATOR     = 

OBJECT_NAME    = STARLINK-35611
OBJECT_ID      = 2025-259F
CENTER_NAME    = EARTH
REF_FRAME      = TEME
TIME_SYSTEM    = UTC
MEAN_ELEMENT_THEORY = SGP/SGP4

EPOCH          = 2025-11-24T12:00:02.000160
MEAN_MOTION    = 15.75022927
ECCENTRICITY   = .0002134
INCLINATION    = 42.9991
RA_OF_ASC_NODE = 155.0345
ARG_OF_PERICENTER = 264.7212
MEAN_ANOMALY   = 241.1744

EPHEMERIS_TYPE = 0
CLASSIFICATION_TYPE = U
NORAD_CAT_ID   = 66427
ELEMENT_SET_NO = 999
REV_AT_EPOCH   = 334
BSTAR          = .26632E-3
MEAN_MOTION_DOT = .40602E-3
MEAN_MOTION_DDOT = 0

CCSDS_OMM_VERS = 2.0
CREATION_DATE  = 
ORIGINATOR     = 

OBJECT_NAME    = STARLINK-35610
OBJECT_ID      = 2025-259G
CENTER_NAME    = EARTH
REF_FRAME      = TEME
TIME_SYSTEM    = UTC
MEAN_ELEMENT_THEORY = SGP/SGP4

EPOCH          = 2025-11-24T12:00:02.000160
MEAN_MOTION    = 15.75030304
ECCENTRICITY   = .0001579
INCLINATION    = 42.9992
RA_OF_ASC_NODE = 155.0296
ARG_OF_PERICENTER = 261.6841
MEAN_ANOMALY   = 246.1264

EPHEMERIS_TYPE = 0
CLASSIFICATION_TYPE = U
NORAD_CAT_ID   = 66428
ELEMENT_SET_NO = 999
REV_AT_EPOCH   = 334
BSTAR          = .12341E-3
MEAN_MOTION_DOT = .18514E-3
MEAN_MOTION_DDOT = 0

CCSDS_OMM_VERS = 2.0
CREATION_DATE  = 
ORIGINATOR     = 

OBJECT_NAME    = STARLINK-35533
OBJECT_ID      = 2025-259H
CENTER_NAME    = EARTH
REF_FRAME      = TEME
TIME_SYSTEM    = UTC
MEAN_ELEMENT_THEORY = SGP/SGP4

EPOCH          = 2025-11-24T12:00:02.000160
MEAN_MOTION    = 15.75037137
ECCENTRICITY   = .0002178
INCLINATION    = 42.9992
RA_OF_ASC_NODE = 155.0236
ARG_OF_PERICENTER = 265.9188
MEAN_ANOMALY   = 243.8081

EPHEMERIS_TYPE = 0
CLASSIFICATION_TYPE = U
NORAD_CAT_ID   = 66429
ELEMENT_SET_NO = 999
REV_AT_EPOCH   = 334
BSTAR          = .61641E-4
MEAN_MOTION_DOT = .9E-4
MEAN_MOTION_DDOT = 0

CCSDS_OMM_VERS = 2.0
CREATION_DATE  = 
ORIGINATOR     = 

OBJECT_NAME    = STARLINK-35470
OBJECT_ID      = 2025-259J
CENTER_NAME    = EARTH
REF_FRAME      = TEME
TIME_SYSTEM    = UTC
MEAN_ELEMENT_THEORY = SGP/SGP4

EPOCH          = 2025-11-24T12:00:02.000160
MEAN_MOTION    = 15.75014915
ECCENTRICITY   = .0002024
INCLINATION    = 42.9992
RA_OF_ASC_NODE = 155.0207
ARG_OF_PERICENTER = 259.2002
MEAN_ANOMALY   = 252.4486

EPHEMERIS_TYPE = 0
CLASSIFICATION_TYPE = U
NORAD_CAT_ID   = 66430
ELEMENT_SET_NO = 999
REV_AT_EPOCH   = 334
BSTAR          = .50773E-3
MEAN_MOTION_DOT = .78159E-3
MEAN_MOTION_DDOT = 0

CCSDS_OMM_VERS = 2.0
CREATION_DATE  = 
ORIGINATOR     = 

OBJECT_NAME    = STARLINK-35439
OBJECT_ID      = 2025-259K
CENTER_NAME    = EARTH
REF_FRAME      = TEME
TIME_SYSTEM    = UTC
MEAN_ELEMENT_THEORY = SGP/SGP4

EPOCH          = 2025-11-24T12:00:02.000160
MEAN_MOTION    = 15.75073724
ECCENTRICITY   = .0001615
INCLINATION    = 42.9995
RA_OF_ASC_NODE = 155.0142
ARG_OF_PERICENTER = 263.0352
MEAN_ANOMALY   = 250.5181

EPHEMERIS_TYPE = 0
CLASSIFICATION_TYPE = U
NORAD_CAT_ID   = 66431
ELEMENT_SET_NO = 999
REV_AT_EPOCH   = 334
BSTAR          = -.43757E-3
MEAN_MOTION_DOT = -.67261E-3
MEAN_MOTION_DDOT = 0

