HULIANWANG DIGUI 13J    
1 66420U 25258J   25326.34657421 -.00000172  00000+0 -47791-5 0  9994
2 66420  50.0028 347.7517 0010939 293.8228  66.1539 14.26346428  1747
CZ-12 R/B               
1 66421U 25258K   25327.32032853 -.00000095  00000+0  22503-4 0  9996
2 66421  49.9956 342.2142 0064593 179.6267 180.4713 14.42311624  1919
STARLINK-35617          
1 66422U 25259A   25328.50002315  .00059183  00000+0  38605-3 0  9999
2 66422  42.9993 155.0589 0001658 277.9910 218.3122 15.75017125  3349
STARLINK-35618          
1 66423U 25259B   25328.50002315  .00049544  00000+0  32405-3 0  9992
2 66423  42.9991 155.0541 0001709 272.8119 225.4095 15.75017176  3342
STARLINK-35588          
1 66424U 25259C   25328.50002315  .00089269  00000+0  57904-3 0  9992
2 66424  42.9992 155.0499 0001605 263.1879 236.9586 15.75001692  3345
STARLINK-35555          
1 66425U 25259D   25328.50002315 -.00236882  00000+0 -15725-2 0  9994
2 66425  42.9992 155.0440 0001371 262.2020 239.8343 15.75185948  3340
STARLINK-35589          
1 66426U 25259E   25328.50002315  .00139670  00000+0  89917-3 0  9995
2 66426  42.9991 155.0404 0002271 264.3184 239.6640 15.74991866  3345
STARLINK-35611          
1 66427U 25259F   25328.50002315  .00040602  00000+0  26632-3 0  9997
2 66427  42.9991 155.0345 0002134 264.7212 241.1744 15.75022927  3341
STARLINK-35610          
1 66428U 25259G   25328.50002315  .00018514  00000+0  12341-3 0  9997
2 66428  42.9992 155.0296 0001579 261.6841 246.1264 15.75030304  3344
STARLINK-35533          
1 66429U 25259H   25328.50002315  .00009000  00000+0  61641-4 0  9996
2 66429  42.9992 155.0236 0002178 265.9188 243.8081 15.75037137  3348
STARLINK-35470          
1 66430U 25259J   25328.50002315  .00078159  00000+0  50773-3 0  9992
2 66430  42.9992 155.0207 0002024 259.2002 252.4486 15.75014915  3343
STARLINK-35439          
1 66431U 25259K   25328.50002315 -.00067261  00000+0 -43757-3 0  9991
2 66431  42.9995 155.0142 0001615 263.0352 250.5181 15.75073724  3345
